[{"OBJECT_NAME":"STARLINK-5016","OBJECT_ID":"2023-046BD","EPOCH":"2026-03-09T22:00:01.999584","MEAN_MOTION":15.08760326,"ECCENTRICITY":0.00018534,"INCLINATION":42.9998,"RA_OF_ASC_NODE":144.2506,"ARG_OF_PERICENTER":263.7344,"MEAN_ANOMALY":28.7822,"EPHEMERIS_TYPE":0,"CLASSIFICATION_TYPE":"U","NORAD_CAT_ID":56143,"ELEMENT_SET_NO":999,"REV_AT_EPOCH":577,"BSTAR":4.0797759e-5,"MEAN_MOTION_DOT":4.36e-6,"MEAN_MOTION_DDOT":0},{"OBJECT_NAME":"COSMOS 2535 DEB","OBJECT_ID":"2019-039H","EPOCH":"2026-03-09T01:37:49.505376","MEAN_MOTION":15.12536261,"ECCENTRICITY":0.00199509,"INCLINATION":97.5365,"RA_OF_ASC_NODE":108.6978,"ARG_OF_PERICENTER":50.248,"MEAN_ANOMALY":310.0505,"EPHEMERIS_TYPE":0,"CLASSIFICATION_TYPE":"U","NORAD_CAT_ID":44631,"ELEMENT_SET_NO":999,"REV_AT_EPOCH":34980,"BSTAR":0.00071319108,"MEAN_MOTION_DOT":0.00012434,"MEAN_MOTION_DDOT":0}]
